GLOBALSTAR M079         
1 37188U 10054A   26061.30628346 -.00000092  00000+0  63428-4 0  9992
2 37188  52.0032  74.0296 0000628 115.7294 257.6419 12.62263798709055
GLOBALSTAR M074         
1 37189U 10054B   26061.44154913 -.00000092  00000+0  67136-4 0  9992
2 37189  52.0011  72.9008 0000312 130.4966  17.0928 12.62266303709677
GLOBALSTAR M076         
1 37190U 10054C   26061.27991868 -.00000091  00000+0  68923-4 0  9997
2 37190  52.0030  73.5869 0000538 137.9995 234.7608 12.62270390709377
GLOBALSTAR M077         
1 37191U 10054D   26061.37238732 -.00000068  00000+0  19256-3 0  9991
2 37191  51.9951  90.5280 0000672 149.9151 223.5028 11.68176311708666
GLOBALSTAR M075         
1 37192U 10054E   26061.47173863 -.00000079  00000+0  14038-3 0  9991
2 37192  51.9934 115.1175 0000498 111.8122 353.3847 12.62264743708468
GLOBALSTAR M073         
1 37193U 10054F   26061.64472413 -.00000106  00000+0 -13450-4 0  9994
2 37193  52.0079  28.6072 0000521 104.1435  66.3758 12.62269681710476
GLOBALSTAR M083         
1 37739U 11033A   26061.70177447 -.00000083  00000+0  11615-3 0  9997
2 37739  51.9883 336.8108 0000749  88.8758 282.6386 12.62267283679509
GLOBALSTAR M088         
1 37740U 11033B   26061.69073110 -.00000096  00000+0  41322-4 0  9992
2 37740  52.0194 243.0138 0000862  92.9648 347.2517 12.62262086675045
GLOBALSTAR M091         
1 37741U 11033C   26061.70895155 -.00000121  00000+0 -97083-4 0  9991
2 37741  51.9985 206.0803 0000942  96.1589   6.9430 12.62270123675830
GLOBALSTAR M085         
1 37742U 11033D   26061.51780694 -.00000096  00000+0  42872-4 0  9998
2 37742  52.0118 157.8610 0000902 104.0180 270.4157 12.62269374676327
GLOBALSTAR M081         
1 37743U 11033E   26061.65242169 -.00000105  00000+0 -44066-5 0  9994
2 37743  51.9949 160.0080 0000822 119.1675  27.4036 12.62262567676482
GLOBALSTAR M089         
1 37744U 11033F   26061.61702587 -.00000075  00000+0  15801-3 0  9994
2 37744  51.9919 114.2962 0000413 153.8605  11.7821 12.62264473677324
GLOBALSTAR M084         
1 38040U 11080A   26061.55229155 -.00000103  00000+0  57231-5 0  9991
2 38040  52.0039 341.9192 0000354  83.1716  88.0147 12.62265130655296
GLOBALSTAR M080         
1 38041U 11080B   26061.81049094 -.00000087  00000+0  95396-4 0  9997
2 38041  52.0086 342.8144 0000964  55.9900 338.5154 12.62266770655455
GLOBALSTAR M082         
1 38042U 11080C   26061.66774713 -.00000063  00000+0  22879-3 0  9993
2 38042  52.0079 298.7403 0001084  69.1662 326.2873 12.62267902656148
GLOBALSTAR M092         
1 38043U 11080D   26061.67107056 -.00000104  00000+0 -40071-5 0  9998
2 38043  52.0102  29.1156 0000350  83.8660  86.7649 12.62264158654599
GLOBALSTAR M090         
1 38044U 11080E   26061.78228566 -.00000068  00000+0  19993-3 0  9996
2 38044  52.0120 292.3136 0000917  85.6200 349.4459 12.62271576656278
GLOBALSTAR M086         
1 38045U 11080F   26061.80635691 -.00000072  00000+0  17802-3 0  9993
2 38045  51.9898 292.3435 0001315 139.6617 299.2325 12.62283296656227
GLOBALSTAR M097         
1 39072U 13005A   26061.65951262 -.00000123  00000+0 -10540-3 0  9991
2 39072  52.0030 207.6114 0001060 108.1649 251.9333 12.62284394603455
GLOBALSTAR M093         
1 39073U 13005B   26061.63338840 -.00000115  00000+0 -62500-4 0  9996
2 39073  52.0092 200.9993 0001220 108.8631 251.2368 12.62273201603402
GLOBALSTAR M094         
1 39074U 13005C   26061.39599335 -.00000081  00000+0  12750-3 0  9990
2 39074  51.9950 115.9479 0000773 116.8229 243.2717 12.62266997604989
GLOBALSTAR M096         
1 39075U 13005D   26061.64668465 -.00000109  00000+0 -30783-4 0  9999
2 39075  52.0067 163.9001 0000908 108.1511 251.9454 12.62263267603938
GLOBALSTAR M078         
1 39076U 13005E   26061.69928769 -.00000096  00000+0  42442-4 0  9990
2 39076  51.9851 247.8979 0001493  61.0466 299.0550 12.62275893602566
GLOBALSTAR M095         
1 39077U 13005F   26061.80508521 -.00000099  00000+0  27445-4 0  9993
2 39077  52.0060 245.0297 0001368  84.3365 275.7658 12.62276117602437
GLOBALSTAR M087         
1 52888U 22064A   26061.58086413 -.00000105  00000+0 -80406-5 0  9995
2 52888  52.0016  27.0099 0000658  84.7083 275.3859 12.62266763177671
